{
  "type": "FeatureCollection",
  "features": [
    {
      "type": "Feature",
      "properties": {
        "norad_id": 2807,
        "name": "OPS 7218 (TRANSIT 16)",
        "group": "nnss",
        "lat": -55.227490321846176,
        "lon": -6.871811976740468,
        "alt_km": 1088.4901810525607,
        "timestamp": "2025-12-25T07:41:09.991534+00:00",
        "meta_object_name": "OPS 7218 (TRANSIT 16)",
        "meta_object_id": "1967-048A",
        "meta_epoch": "2025-12-24T23:22:05.234880",
        "meta_mean_motion": 13.50724747,
        "meta_eccentricity": 0.00221485,
        "meta_inclination": 89.6734,
        "meta_ra_of_asc_node": 353.6103,
        "meta_arg_of_pericenter": 81.5285,
        "meta_mean_anomaly": 339.1972,
        "meta_ephemeris_type": 0,
        "meta_classification_type": "U",
        "meta_norad_cat_id": 2807,
        "meta_element_set_no": 999,
        "meta_rev_at_epoch": 88441,
        "meta_bstar": 0.00013774229,
        "meta_mean_motion_dot": 9.9e-07,
        "meta_mean_motion_ddot": 0,
        "tle_line1": "1 02807U 67048A   25358.97367170  .00000099  00000+0  13774-3 0  9997",
        "tle_line2": "2 02807  89.6734 353.6103 0022148  81.5285 339.1972 13.50724747884412"
      },
      "geometry": {
        "type": "Point",
        "coordinates": [
          -6.871811976740468,
          -55.227490321846176
        ]
      }
    },
    {
      "type": "Feature",
      "properties": {
        "norad_id": 2965,
        "name": "OPS 4947 (TRANSIT 17)",
        "group": "nnss",
        "lat": 47.33499425820481,
        "lon": -157.34024245650974,
        "alt_km": 1040.2858905730109,
        "timestamp": "2025-12-25T07:41:09.991557+00:00",
        "meta_object_name": "OPS 4947 (TRANSIT 17)",
        "meta_object_id": "1967-092A",
        "meta_epoch": "2025-12-24T15:39:13.887648",
        "meta_mean_motion": 13.53456658,
        "meta_eccentricity": 0.00470847,
        "meta_inclination": 89.2486,
        "meta_ra_of_asc_node": 23.5265,
        "meta_arg_of_pericenter": 199.1608,
        "meta_mean_anomaly": 281.0103,
        "meta_ephemeris_type": 0,
        "meta_classification_type": "U",
        "meta_norad_cat_id": 2965,
        "meta_element_set_no": 999,
        "meta_rev_at_epoch": 87258,
        "meta_bstar": 0.00018040166,
        "meta_mean_motion_dot": 1.33e-06,
        "meta_mean_motion_ddot": 0,
        "tle_line1": "1 02965U 67092A   25358.65224407  .00000133  00000+0  18040-3 0  9991",
        "tle_line2": "2 02965  89.2486  23.5265 0047084 199.1608 281.0103 13.53456658872582"
      },
      "geometry": {
        "type": "Point",
        "coordinates": [
          -157.34024245650974,
          47.33499425820481
        ]
      }
    },
    {
      "type": "Feature",
      "properties": {
        "norad_id": 3133,
        "name": "OPS 7034 (TRANSIT 18)",
        "group": "nnss",
        "lat": -17.724397812532345,
        "lon": 93.66576251354175,
        "alt_km": 1047.1987941825219,
        "timestamp": "2025-12-25T07:41:09.991570+00:00",
        "meta_object_name": "OPS 7034 (TRANSIT 18)",
        "meta_object_id": "1968-012A",
        "meta_epoch": "2025-12-24T18:32:58.948800",
        "meta_mean_motion": 13.51568466,
        "meta_eccentricity": 0.00749525,
        "meta_inclination": 90.0285,
        "meta_ra_of_asc_node": 273.6733,
        "meta_arg_of_pericenter": 134.5685,
        "meta_mean_anomaly": 280.6432,
        "meta_ephemeris_type": 0,
        "meta_classification_type": "U",
        "meta_norad_cat_id": 3133,
        "meta_element_set_no": 999,
        "meta_rev_at_epoch": 57081,
        "meta_bstar": 0.00020607485,
        "meta_mean_motion_dot": 1.47e-06,
        "meta_mean_motion_ddot": 0,
        "tle_line1": "1 03133U 68012A   25358.77290450  .00000147  00000+0  20607-3 0  9993",
        "tle_line2": "2 03133  90.0285 273.6733 0074952 134.5685 280.6432 13.51568466570817"
      },
      "geometry": {
        "type": "Point",
        "coordinates": [
          93.66576251354175,
          -17.724397812532345
        ]
      }
    },
    {
      "type": "Feature",
      "properties": {
        "norad_id": 4507,
        "name": "NNSS 19 (TRANSIT 19)",
        "group": "nnss",
        "lat": 24.871956608408944,
        "lon": 54.544529824005636,
        "alt_km": 1089.9915243062696,
        "timestamp": "2025-12-25T07:41:09.991582+00:00",
        "meta_object_name": "NNSS 19 (TRANSIT 19)",
        "meta_object_id": "1970-067A",
        "meta_epoch": "2025-12-24T16:41:08.378304",
        "meta_mean_motion": 13.51317454,
        "meta_eccentricity": 0.0170208,
        "meta_inclination": 90.0048,
        "meta_ra_of_asc_node": 234.542,
        "meta_arg_of_pericenter": 258.3836,
        "meta_mean_anomaly": 99.8168,
        "meta_ephemeris_type": 0,
        "meta_classification_type": "U",
        "meta_norad_cat_id": 4507,
        "meta_element_set_no": 999,
        "meta_rev_at_epoch": 72383,
        "meta_bstar": 0.00013259382,
        "meta_mean_motion_dot": 1.02e-06,
        "meta_mean_motion_ddot": 0,
        "tle_line1": "1 04507U 70067A   25358.69523586  .00000102  00000+0  13259-3 0  9998",
        "tle_line2": "2 04507  90.0048 234.5420 0170208 258.3836  99.8168 13.51317454723830"
      },
      "geometry": {
        "type": "Point",
        "coordinates": [
          54.544529824005636,
          24.871956608408944
        ]
      }
    },
    {
      "type": "Feature",
      "properties": {
        "norad_id": 6909,
        "name": "NNSS 20 (TRANSIT 20)",
        "group": "nnss",
        "lat": 60.1384354421908,
        "lon": -104.88330367323077,
        "alt_km": 879.6996957664342,
        "timestamp": "2025-12-25T07:41:09.991607+00:00",
        "meta_object_name": "NNSS 20 (TRANSIT 20)",
        "meta_object_id": "1973-081A",
        "meta_epoch": "2025-12-24T15:38:35.406816",
        "meta_mean_motion": 13.71440507,
        "meta_eccentricity": 0.01561702,
        "meta_inclination": 89.856,
        "meta_ra_of_asc_node": 254.8758,
        "meta_arg_of_pericenter": 43.0124,
        "meta_mean_anomaly": 318.3123,
        "meta_ephemeris_type": 0,
        "meta_classification_type": "U",
        "meta_norad_cat_id": 6909,
        "meta_element_set_no": 999,
        "meta_rev_at_epoch": 80524,
        "meta_bstar": 0.0002803412,
        "meta_mean_motion_dot": 2.86e-06,
        "meta_mean_motion_ddot": 0,
        "tle_line1": "1 06909U 73081A   25358.65179869  .00000286  00000+0  28034-3 0  9992",
        "tle_line2": "2 06909  89.8560 254.8758 0156170  43.0124 318.3123 13.71440507805247"
      },
      "geometry": {
        "type": "Point",
        "coordinates": [
          -104.88330367323077,
          60.1384354421908
        ]
      }
    },
    {
      "type": "Feature",
      "properties": {
        "norad_id": 10457,
        "name": "TRANSAT",
        "group": "nnss",
        "lat": 54.324038110568594,
        "lon": 78.64260564504264,
        "alt_km": 1074.2551955814606,
        "timestamp": "2025-12-25T07:41:09.991620+00:00",
        "meta_object_name": "TRANSAT",
        "meta_object_id": "1977-106A",
        "meta_epoch": "2025-12-24T23:22:13.339200",
        "meta_mean_motion": 13.48945461,
        "meta_eccentricity": 0.00265054,
        "meta_inclination": 89.6475,
        "meta_ra_of_asc_node": 78.1636,
        "meta_arg_of_pericenter": 154.8133,
        "meta_mean_anomaly": 18.2518,
        "meta_ephemeris_type": 0,
        "meta_classification_type": "U",
        "meta_norad_cat_id": 10457,
        "meta_element_set_no": 999,
        "meta_rev_at_epoch": 36908,
        "meta_bstar": 0.00013253967,
        "meta_mean_motion_dot": 9.4e-07,
        "meta_mean_motion_ddot": 0,
        "tle_line1": "1 10457U 77106A   25358.97376550  .00000094  00000+0  13254-3 0  9993",
        "tle_line2": "2 10457  89.6475  78.1636 0026505 154.8133  18.2518 13.48945461369088"
      },
      "geometry": {
        "type": "Point",
        "coordinates": [
          78.64260564504264,
          54.324038110568594
        ]
      }
    },
    {
      "type": "Feature",
      "properties": {
        "norad_id": 12458,
        "name": "NOVA 1",
        "group": "nnss",
        "lat": -55.543326271341655,
        "lon": -88.5775739678994,
        "alt_km": 1190.6648898926614,
        "timestamp": "2025-12-25T07:41:09.991632+00:00",
        "meta_object_name": "NOVA 1",
        "meta_object_id": "1981-044A",
        "meta_epoch": "2025-12-24T20:15:02.808000",
        "meta_mean_motion": 13.23279733,
        "meta_eccentricity": 0.00157476,
        "meta_inclination": 89.8525,
        "meta_ra_of_asc_node": 91.2141,
        "meta_arg_of_pericenter": 74.27,
        "meta_mean_anomaly": 52.6435,
        "meta_ephemeris_type": 0,
        "meta_classification_type": "U",
        "meta_norad_cat_id": 12458,
        "meta_element_set_no": 999,
        "meta_rev_at_epoch": 15346,
        "meta_bstar": 0.00017985752,
        "meta_mean_motion_dot": 8.5e-07,
        "meta_mean_motion_ddot": 0,
        "tle_line1": "1 12458U 81044A   25358.84378250  .00000085  00000+0  17986-3 0  9993",
        "tle_line2": "2 12458  89.8525  91.2141 0015747  74.2700  52.6435 13.23279733153465"
      },
      "geometry": {
        "type": "Point",
        "coordinates": [
          -88.5775739678994,
          -55.543326271341655
        ]
      }
    }
  ]
}